*******************************************************************************
Ephemeris / WWW_USER Mon Jul 15 19:11:24 2024 Pasadena, USA      / Horizons    
*******************************************************************************
Target body name: (2018 RY7)                      {source: JPL#20}
Center body name: Earth (399)                     {source: DE441}
Center-site name: Gemini South Obs., Cerro Pachon
*******************************************************************************
Start time      : A.D. 2018-Oct-23 23:07:00.0000 UT      
Stop  time      : A.D. 2018-Oct-24 09:46:00.0000 UT      
Step-size       : 1 minutes
*******************************************************************************
Target pole/equ : undefined
Target radii    : undefined                                                    
Center geodetic : 289.2634, -30.2406227, 2.71233  {E-lon(deg),Lat(deg),Alt(km)}
Center cylindric: 289.2634,5517.21435,-3194.81213 {E-lon(deg),Dxy(km),Dz(km)}
Center pole/equ : ITRF93                          {East-longitude positive}
Center radii    : 6378.137, 6378.137, 6356.752 km {Equator_a, b, pole_c}       
Target primary  : Sun
Vis. interferer : MOON (R_eq= 1737.400) km        {source: DE441}
Rel. light bend : Sun                             {source: DE441}
Rel. lght bnd GM: 1.3271E+11 km^3/s^2                                          
Small-body perts: Yes                             {source: SB441-N16}
Atmos refraction: NO (AIRLESS)
RA format       : HMS
Time format     : CAL 
Calendar mode   : Mixed Julian/Gregorian
RTS-only print  : NO       
EOP file        : eop.240715.p241008                                           
EOP coverage    : DATA-BASED 1962-JAN-20 TO 2024-JUL-15. PREDICTS-> 2024-OCT-07
Units conversion: 1 au= 149597870.700 km, c= 299792.458 km/s, 1 day= 86400.0 s 
Table cut-offs 1: Elevation (-90.0deg=NO ),Airmass (>38.000=NO), Daylight (YES)
Table cut-offs 2: Solar elongation (  0.0,180.0=NO ),Local Hour Angle( 0.0=NO )
Table cut-offs 3: RA/DEC angular rate (     0.0=NO )                           
*******************************************************************************
Initial IAU76/J2000 heliocentric ecliptic osculating elements (au, days, deg.):
  EPOCH=  2458422.5 ! 2018-Oct-31.00 (TDB)         Residual RMS= .22459        
   EC= .1470549687381346   QR= .8667733479166969   TP= 2458516.8896767548      
   OM= 2.838668085760325   W=  136.9006026425241   IN= 13.35135890147074       
  Equivalent ICRF heliocentric cartesian coordinates (au, au/d):
   X= 8.791791513870114E-01  Y= 4.508422091141234E-01  Z= 3.244113040133835E-01
  VX=-1.085418916943652E-02 VY= 1.006005810562689E-02 VZ= 7.673980932675997E-03
Asteroid physical parameters (km, seconds, rotational period in hours):        
   GM= n.a.                RAD= n.a.               ROTPER= n.a.                
   H= 24.4                 G= .150                 B-V= n.a.                   
                           ALBEDO= n.a.            STYP= n.a.                  
*******************************************************************************
 Date__(UT)__HR:MN     R.A._________(ICRF)_________DEC
******************************************************
$$SOE
 2018-Oct-24 09:22 Nm  21 08 53.761040 +29 44 40.40787
 2018-Oct-24 09:23 Nm  21 08 53.606078 +29 44 41.53912
 2018-Oct-24 09:24 Nm  21 08 53.451166 +29 44 42.67074
 2018-Oct-24 09:25 Nm  21 08 53.296304 +29 44 43.80274
 2018-Oct-24 09:26 Nm  21 08 53.141493 +29 44 44.93513
 2018-Oct-24 09:27 Nm  21 08 52.986731 +29 44 46.06790
 2018-Oct-24 09:28 Nm  21 08 52.832018 +29 44 47.20105
 2018-Oct-24 09:29 Nm  21 08 52.677354 +29 44 48.33459
 2018-Oct-24 09:30 Nm  21 08 52.522739 +29 44 49.46851
 2018-Oct-24 09:31 Cm  21 08 52.368173 +29 44 50.60282
 2018-Oct-24 09:32 Cm  21 08 52.213655 +29 44 51.73753
 2018-Oct-24 09:33 Cm  21 08 52.059185 +29 44 52.87262
 2018-Oct-24 09:34 Cm  21 08 51.904762 +29 44 54.00810
 2018-Oct-24 09:35 Cm  21 08 51.750387 +29 44 55.14398
 2018-Oct-24 09:36 Cm  21 08 51.596058 +29 44 56.28025
 2018-Oct-24 09:37 Cm  21 08 51.441777 +29 44 57.41692
 2018-Oct-24 09:38 Cm  21 08 51.287541 +29 44 58.55398
 2018-Oct-24 09:39 Cm  21 08 51.133352 +29 44 59.69144
 2018-Oct-24 09:40 Cm  21 08 50.979209 +29 45 00.82930
 2018-Oct-24 09:41 Cm  21 08 50.825111 +29 45 01.96756
 2018-Oct-24 09:42 Cm  21 08 50.671058 +29 45 03.10622
 2018-Oct-24 09:43 Cm  21 08 50.517051 +29 45 04.24528
 2018-Oct-24 09:44 Cm  21 08 50.363087 +29 45 05.38475
 2018-Oct-24 09:45 Cm  21 08 50.209169 +29 45 06.52462
 2018-Oct-24 09:46 Cm  21 08 50.055294 +29 45 07.66489
